{"type": "FeatureCollection", "features": [{"type": "Feature", "properties": {"norad_id": 25730, "name": "FENGYUN 1C", "group": "fengyun-1c-debris", "lat": 81.11222759953971, "lon": -26.344047367794676, "alt_km": 792.7060537745292, "timestamp": "2025-12-23T16:57:12.623033+00:00", "meta": {"OBJECT_NAME": "FENGYUN 1C", "OBJECT_ID": "1999-025A", "EPOCH": "2025-12-23T04:44:48.196320", "MEAN_MOTION": 14.26103115, "ECCENTRICITY": 0.00102658, "INCLINATION": 98.8821, "RA_OF_ASC_NODE": 63.3733, "ARG_OF_PERICENTER": 40.141, "MEAN_ANOMALY": 320.0526, "EPHEMERIS_TYPE": 0, "CLASSIFICATION_TYPE": "U", "NORAD_CAT_ID": 25730, "ELEMENT_SET_NO": 999, "REV_AT_EPOCH": 37286, "BSTAR": 0.0011274638, "MEAN_MOTION_DOT": 2.652e-05, "MEAN_MOTION_DDOT": 0}, "tle": {"line1": "1 25730U 99025A   25357.19778005  .00002652  00000+0  11275-2 0  9993", "line2": "2 25730  98.8821  63.3733 0010265  40.1410 320.0526 14.26103115372862"}}, "geometry": {"type": "Point", "coordinates": [-26.344047367794676, 81.11222759953971]}}, {"type": "Feature", "properties": {"norad_id": 29733, "name": "FENGYUN 1C DEB", "group": "fengyun-1c-debris", "lat": -22.235935672273914, "lon": 55.913568915181116, "alt_km": 1689.9473604908599, "timestamp": "2025-12-23T16:57:12.623055+00:00", "meta": {"OBJECT_NAME": "FENGYUN 1C DEB", "OBJECT_ID": "1999-025X", "EPOCH": "2025-12-23T02:26:12.791616", "MEAN_MOTION": 12.9648969, "ECCENTRICITY": 0.05697036, "INCLINATION": 99.2239, "RA_OF_ASC_NODE": 51.5918, "ARG_OF_PERICENTER": 178.1944, "MEAN_ANOMALY": 215.4219, "EPHEMERIS_TYPE": 0, "CLASSIFICATION_TYPE": "U", "NORAD_CAT_ID": 29733, "ELEMENT_SET_NO": 999, "REV_AT_EPOCH": 89254, "BSTAR": 0.0012023393, "MEAN_MOTION_DOT": 6.93e-06, "MEAN_MOTION_DDOT": 0}, "tle": {"line1": "1 29733U 99025X   25357.10153694  .00000693  00000+0  12023-2 0  9997", "line2": "2 29733  99.2239  51.5918 0569703 178.1944 215.4219 12.96489690892549"}}, "geometry": {"type": "Point", "coordinates": [55.913568915181116, -22.235935672273914]}}, {"type": "Feature", "properties": {"norad_id": 29734, "name": "FENGYUN 1C DEB", "group": "fengyun-1c-debris", "lat": -50.91770667652313, "lon": -62.710082634142005, "alt_km": 922.828013423531, "timestamp": "2025-12-23T16:57:12.623068+00:00", "meta": {"OBJECT_NAME": "FENGYUN 1C DEB", "OBJECT_ID": "1999-025Y", "EPOCH": "2025-12-22T11:44:13.126848", "MEAN_MOTION": 12.91356739, "ECCENTRICITY": 0.06156541, "INCLINATION": 99.1709, "RA_OF_ASC_NODE": 284.7995, "ARG_OF_PERICENTER": 349.6229, "MEAN_ANOMALY": 66.2896, "EPHEMERIS_TYPE": 0, "CLASSIFICATION_TYPE": "U", "NORAD_CAT_ID": 29734, "ELEMENT_SET_NO": 999, "REV_AT_EPOCH": 88674, "BSTAR": 0.0047793506, "MEAN_MOTION_DOT": 2.947e-05, "MEAN_MOTION_DDOT": 0}, "tle": {"line1": "1 29734U 99025Y   25356.48904082  .00002947  00000+0  47794-2 0  9990", "line2": "2 29734  99.1709 284.7995 0615654 349.6229  66.2896 12.91356739886744"}}, "geometry": {"type": "Point", "coordinates": [-62.710082634142005, -50.91770667652313]}}, {"type": "Feature", "properties": {"norad_id": 29735, "name": "FENGYUN 1C DEB", "group": "fengyun-1c-debris", "lat": -48.16342183667829, "lon": -78.51335079216062, "alt_km": 1871.4323458260305, "timestamp": "2025-12-23T16:57:12.623081+00:00", "meta": {"OBJECT_NAME": "FENGYUN 1C DEB", "OBJECT_ID": "1999-025Z", "EPOCH": "2025-12-22T16:45:50.077728", "MEAN_MOTION": 12.75065668, "ECCENTRICITY": 0.06975573, "INCLINATION": 99.3915, "RA_OF_ASC_NODE": 269.9945, "ARG_OF_PERICENTER": 153.0818, "MEAN_ANOMALY": 210.8321, "EPHEMERIS_TYPE": 0, "CLASSIFICATION_TYPE": "U", "NORAD_CAT_ID": 29735, "ELEMENT_SET_NO": 999, "REV_AT_EPOCH": 87542, "BSTAR": 0.0019363554, "MEAN_MOTION_DOT": 1.098e-05, "MEAN_MOTION_DDOT": 0}, "tle": {"line1": "1 29735U 99025Z   25356.69849627  .00001098  00000+0  19364-2 0  9995", "line2": "2 29735  99.3915 269.9945 0697557 153.0818 210.8321 12.75065668875422"}}, "geometry": {"type": "Point", "coordinates": [-78.51335079216062, -48.16342183667829]}}, {"type": "Feature", "properties": {"norad_id": 29736, "name": "FENGYUN 1C DEB", "group": "fengyun-1c-debris", "lat": 79.19853422096054, "lon": 55.29234815342206, "alt_km": 1286.8520686775819, "timestamp": "2025-12-23T16:57:12.623092+00:00", "meta": {"OBJECT_NAME": "FENGYUN 1C DEB", "OBJECT_ID": "1999-025AA", "EPOCH": "2025-12-23T01:49:51.748032", "MEAN_MOTION": 12.57508061, "ECCENTRICITY": 0.07245923, "INCLINATION": 99.4035, "RA_OF_ASC_NODE": 174.4958, "ARG_OF_PERICENTER": 176.523, "MEAN_ANOMALY": 315.7433, "EPHEMERIS_TYPE": 0, "CLASSIFICATION_TYPE": "U", "NORAD_CAT_ID": 29736, "ELEMENT_SET_NO": 999, "REV_AT_EPOCH": 86674, "BSTAR": 0.0017227006, "MEAN_MOTION_DOT": 7.54e-06, "MEAN_MOTION_DDOT": 0}, "tle": {"line1": "1 29736U 99025AA  25357.07629338  .00000754  00000+0  17227-2 0  9998", "line2": "2 29736  99.4035 174.4958 0724592 176.5230 315.7433 12.57508061866742"}}, "geometry": {"type": "Point", "coordinates": [55.29234815342206, 79.19853422096054]}}, {"type": "Feature", "properties": {"norad_id": 29737, "name": "FENGYUN 1C DEB", "group": "fengyun-1c-debris", "lat": 14.307464174843432, "lon": 133.43206477216026, "alt_km": 1035.9706992900074, "timestamp": "2025-12-23T16:57:12.623103+00:00", "meta": {"OBJECT_NAME": "FENGYUN 1C DEB", "OBJECT_ID": "1999-025AB", "EPOCH": "2025-12-22T19:37:08.067936", "MEAN_MOTION": 12.65681714, "ECCENTRICITY": 0.06956788, "INCLINATION": 99.5803, "RA_OF_ASC_NODE": 310.2212, "ARG_OF_PERICENTER": 116.586, "MEAN_ANOMALY": 314.3212, "EPHEMERIS_TYPE": 0, "CLASSIFICATION_TYPE": "U", "NORAD_CAT_ID": 29737, "ELEMENT_SET_NO": 999, "REV_AT_EPOCH": 86996, "BSTAR": 0.0034135121, "MEAN_MOTION_DOT": 1.634e-05, "MEAN_MOTION_DDOT": 0}, "tle": {"line1": "1 29737U 99025AB  25356.81745449  .00001634  00000+0  34135-2 0  9997", "line2": "2 29737  99.5803 310.2212 0695678 116.5860 314.3212 12.65681714869968"}}, "geometry": {"type": "Point", "coordinates": [133.43206477216026, 14.307464174843432]}}, {"type": "Feature", "properties": {"norad_id": 29738, "name": "FENGYUN 1C DEB", "group": "fengyun-1c-debris", "lat": 14.239316795302088, "lon": 160.23167925255285, "alt_km": 1523.8645074196857, "timestamp": "2025-12-23T16:57:12.623120+00:00", "meta": {"OBJECT_NAME": "FENGYUN 1C DEB", "OBJECT_ID": "1999-025AC", "EPOCH": "2025-12-22T10:24:43.509024", "MEAN_MOTION": 12.61075713, "ECCENTRICITY": 0.08652329, "INCLINATION": 99.4096, "RA_OF_ASC_NODE": 161.6026, "ARG_OF_PERICENTER": 273.501, "MEAN_ANOMALY": 76.762, "EPHEMERIS_TYPE": 0, "CLASSIFICATION_TYPE": "U", "NORAD_CAT_ID": 29738, "ELEMENT_SET_NO": 999, "REV_AT_EPOCH": 86339, "BSTAR": 0.0031658106, "MEAN_MOTION_DOT": 2.383e-05, "MEAN_MOTION_DDOT": 0}, "tle": {"line1": "1 29738U 99025AC  25356.43383691  .00002383  00000+0  31658-2 0  9992", "line2": "2 29738  99.4096 161.6026 0865232 273.5010  76.7620 12.61075713863394"}}, "geometry": {"type": "Point", "coordinates": [160.23167925255285, 14.239316795302088]}}, {"type": "Feature", "properties": {"norad_id": 29740, "name": "FENGYUN 1C DEB", "group": "fengyun-1c-debris", "lat": 75.99419773808395, "lon": 166.45402318321203, "alt_km": 1662.7659841390077, "timestamp": "2025-12-23T16:57:12.623145+00:00", "meta": {"OBJECT_NAME": "FENGYUN 1C DEB", "OBJECT_ID": "1999-025AE", "EPOCH": "2025-12-23T00:33:36.335808", "MEAN_MOTION": 12.08325012, "ECCENTRICITY": 0.09737402, "INCLINATION": 99.0456, "RA_OF_ASC_NODE": 205.6516, "ARG_OF_PERICENTER": 178.1422, "MEAN_ANOMALY": 182.3695, "EPHEMERIS_TYPE": 0, "CLASSIFICATION_TYPE": "U", "NORAD_CAT_ID": 29740, "ELEMENT_SET_NO": 999, "REV_AT_EPOCH": 83059, "BSTAR": -0.00058970575, "MEAN_MOTION_DOT": -2.51e-06, "MEAN_MOTION_DDOT": 0}, "tle": {"line1": "1 29740U 99025AE  25357.02333722 -.00000251  00000+0 -58971-3 0  9993", "line2": "2 29740  99.0456 205.6516 0973740 178.1422 182.3695 12.08325012830590"}}, "geometry": {"type": "Point", "coordinates": [166.45402318321203, 75.99419773808395]}}, {"type": "Feature", "properties": {"norad_id": 29741, "name": "FENGYUN 1C DEB", "group": "fengyun-1c-debris", "lat": 28.37029047459098, "lon": -136.07989693180357, "alt_km": 867.1114813803179, "timestamp": "2025-12-23T16:57:12.623165+00:00", "meta": {"OBJECT_NAME": "FENGYUN 1C DEB", "OBJECT_ID": "1999-025AF", "EPOCH": "2025-12-22T11:24:11.155968", "MEAN_MOTION": 12.00978658, "ECCENTRICITY": 0.10259076, "INCLINATION": 99.1733, "RA_OF_ASC_NODE": 228.0441, "ARG_OF_PERICENTER": 44.8042, "MEAN_ANOMALY": 65.6101, "EPHEMERIS_TYPE": 0, "CLASSIFICATION_TYPE": "U", "NORAD_CAT_ID": 29741, "ELEMENT_SET_NO": 999, "REV_AT_EPOCH": 52300, "BSTAR": 0.0060666108, "MEAN_MOTION_DOT": 2.368e-05, "MEAN_MOTION_DDOT": 0}, "tle": {"line1": "1 29741U 99025AF  25356.47512912  .00002368  00000+0  60666-2 0  9994", "line2": "2 29741  99.1733 228.0441 1025907  44.8042  65.6101 12.00978658523009"}}, "geometry": {"type": "Point", "coordinates": [-136.07989693180357, 28.37029047459098]}}, {"type": "Feature", "properties": {"norad_id": 29748, "name": "FENGYUN 1C DEB", "group": "fengyun-1c-debris", "lat": -65.2399675113414, "lon": 83.84216717449397, "alt_km": 1848.097121011314, "timestamp": "2025-12-23T16:57:12.623177+00:00", "meta": {"OBJECT_NAME": "FENGYUN 1C DEB", "OBJECT_ID": "1999-025AN", "EPOCH": "2025-12-18T18:32:21.128928", "MEAN_MOTION": 11.90388386, "ECCENTRICITY": 0.08620111, "INCLINATION": 99.7832, "RA_OF_ASC_NODE": 282.1412, "ARG_OF_PERICENTER": 0.8877, "MEAN_ANOMALY": 359.3487, "EPHEMERIS_TYPE": 0, "CLASSIFICATION_TYPE": "U", "NORAD_CAT_ID": 29748, "ELEMENT_SET_NO": 999, "REV_AT_EPOCH": 78805, "BSTAR": 0.10881389, "MEAN_MOTION_DOT": 0.00022252, "MEAN_MOTION_DDOT": 0}, "tle": {"line1": "1 29748U 99025AN  25352.77246677  .00022252  00000+0  10881+0 0  9997", "line2": "2 29748  99.7832 282.1412 0862011   0.8877 359.3487 11.90388386788052"}}, "geometry": {"type": "Point", "coordinates": [83.84216717449397, -65.2399675113414]}}]}